NORAD_CAT_ID,OBJECT_NAME,OBJECT_TYPE,EPOCH,MEAN_MOTION,ECCENTRICITY,INCLINATION,RA_OF_ASC_NODE,ARG_OF_PERICENTER,MEAN_ANOMALY,BSTAR,MEAN_MOTION_DOT,MEAN_MOTION_DDOT,TLE_LINE0,TLE_LINE1,TLE_LINE2,SEMIMAJOR_AXIS,PERIOD,APOGEE,PERIGEE,DECAYED
54177.0,STARLINK-5186,PAYLOAD,2023-05-29 09:29:39,15.08838236,9.88e-05,53.2156,241.8867,87.8435,272.267,4.8478e-05,4.84e-06,0.0,0 STARLINK-5186,1 54177U 22141W   23149.39559836  .00000484  00000-0  48478-4 0  9992,2 54177  53.2156 241.8867 0000988  87.8435 272.2670 15.08838236 32582,6917.886,95.438,540.434,539.067,0.0
54177.0,STARLINK-5186,PAYLOAD,2023-05-29 12:40:25,15.088423,9.81e-05,53.216,241.2917,89.7252,270.3853,2.7186e-05,1.45e-06,0.0,0 STARLINK-5186,1 54177U 22141W   23149.52807630  .00000145  00000-0  27186-4 0  9992,2 54177  53.2160 241.2917 0000981  89.7252 270.3853 15.08842300 32600,6917.873,95.437,540.417,539.06,0.0
54177.0,STARLINK-5186,PAYLOAD,2023-05-30 12:31:13,15.0883651,0.0001032,53.2167,236.831,101.0439,259.0669,-2.3494e-05,-6.62e-06,0.0,0 STARLINK-5186,1 54177U 22141W   23150.52168140 -.00000662  00000-0 -23494-4 0  9994,2 54177  53.2167 236.8310 0001032 101.0439 259.0669 15.08836510 32758,6917.891,95.438,540.47,539.042,0.0
54177.0,STARLINK-5186,PAYLOAD,2023-05-31 10:46:36,15.08840818,9.83e-05,53.2166,232.6688,89.744,270.3665,4.9616e-05,5.02e-06,0.0,0 STARLINK-5186,1 54177U 22141W   23151.44903736  .00000502  00000-0  49616-4 0  9999,2 54177  53.2166 232.6688 0000983  89.7440 270.3665 15.08840818 32890,6917.878,95.438,540.423,539.063,0.0
54177.0,STARLINK-5186,PAYLOAD,2023-05-31 12:21:59,15.08841258,0.0001064,53.2171,232.3726,103.1998,256.9113,5.8256e-05,6.4e-06,0.0,0 STARLINK-5186,1 54177U 22141W   23151.51527648  .00000640  00000-0  58256-4 0  9994,2 54177  53.2171 232.3726 0001064 103.1998 256.9113 15.08841258 32905,6917.877,95.437,540.478,539.005,0.0
54177.0,STARLINK-5186,PAYLOAD,2023-06-01 10:37:24,15.08832886,0.0001034,53.2168,228.2085,97.8099,262.3011,3.2037e-05,2.22e-06,0.0,0 STARLINK-5186,1 54177U 22141W   23152.44264557  .00000222  00000-0  32037-4 0  9999,2 54177  53.2168 228.2085 0001034  97.8099 262.3011 15.08832886 33042,6917.902,95.438,540.482,539.052,0.0
54177.0,STARLINK-5186,PAYLOAD,2023-06-01 21:45:06,15.08835132,0.0001077,53.2172,226.1272,90.4364,269.6752,2.829e-05,1.62e-06,0.0,0 STARLINK-5186,1 54177U 22141W   23152.90632612  .00000162  00000-0  28290-4 0  9990,2 54177  53.2172 226.1272 0001077  90.4364 269.6752 15.08835132 33110,6917.895,95.438,540.505,539.015,0.0
54177.0,STARLINK-5186,PAYLOAD,2023-06-02 12:03:35,15.08836222,0.0001085,53.2173,223.4508,90.5751,269.5365,-7.8384e-06,-4.13e-06,0.0,0 STARLINK-5186,1 54177U 22141W   23153.50248860 -.00000413  00000-0 -78384-5 0  9996,2 54177  53.2173 223.4508 0001085  90.5751 269.5365 15.08836222 33203,6917.892,95.438,540.508,539.006,0.0
54177.0,STARLINK-5186,PAYLOAD,2023-06-02 21:35:53,15.08835035,0.0001055,53.2173,221.6666,87.0465,273.0648,4.3223e-05,4e-06,0.0,0 STARLINK-5186,1 54177U 22141W   23153.89992880  .00000400  00000-0  43223-4 0  9993,2 54177  53.2173 221.6666 0001055  87.0465 273.0648 15.08835035 33269,6917.896,95.438,540.49,539.031,0.0
54177.0,STARLINK-5186,PAYLOAD,2023-06-03 11:54:21,15.08839391,9.81e-05,53.2168,218.99,85.3863,274.7242,6.8301e-05,7.99e-06,0.0,0 STARLINK-5186,1 54177U 22141W   23154.49608633  .00000799  00000-0  68301-4 0  9995,2 54177  53.2168 218.9900 0000981  85.3863 274.7242 15.08839391 33350,6917.882,95.438,540.426,539.069,0.0
54177.0,STARLINK-5186,PAYLOAD,2023-06-03 21:26:40,15.08840426,0.0001012,53.2168,217.2057,81.9145,278.1962,5.6908e-05,6.18e-06,0.0,0 STARLINK-5186,1 54177U 22141W   23154.89352626  .00000618  00000-0  56908-4 0  9997,2 54177  53.2168 217.2057 0001012  81.9145 278.1962 15.08840426 33411,6917.879,95.438,540.444,539.044,0.0
54177.0,STARLINK-5186,PAYLOAD,2023-06-03 23:02:03,15.08840627,9.68e-05,53.2163,216.9083,82.0425,278.0677,6.0466e-05,6.75e-06,0.0,0 STARLINK-5186,1 54177U 22141W   23154.95976583  .00000675  00000-0  60466-4 0  9995,2 54177  53.2163 216.9083 0000968  82.0425 278.0677 15.08840627 33429,6917.878,95.438,540.413,539.074,0.0
54177.0,STARLINK-5186,PAYLOAD,2023-06-04 11:45:08,15.08842351,8.7e-05,53.2159,214.5287,84.7269,275.3823,8.7024e-05,1.098e-05,0.0,0 STARLINK-5186,1 54177U 22141W   23155.48968388  .00001098  00000-0  87024-4 0  9997,2 54177  53.2159 214.5287 0000870  84.7269 275.3823 15.08842351 33509,6917.873,95.437,540.34,539.136,0.0
54177.0,STARLINK-5186,PAYLOAD,2023-06-04 21:17:27,15.08841013,8.68e-05,53.2159,212.7448,83.2675,276.8416,5.5759e-05,6e-06,0.0,0 STARLINK-5186,1 54177U 22141W   23155.88712513  .00000600  00000-0  55759-4 0  9996,2 54177  53.2159 212.7448 0000868  83.2675 276.8416 15.08841013 33564,6917.877,95.437,540.343,539.142,0.0
54177.0,STARLINK-5186,PAYLOAD,2023-06-05 10:00:32,15.08841165,8.82e-05,53.2158,210.3657,84.5789,275.5304,2.1772e-05,5.9e-07,0.0,0 STARLINK-5186,1 54177U 22141W   23156.41704556  .00000059  00000-0  21772-4 0  9990,2 54177  53.2158 210.3657 0000882  84.5789 275.5304 15.08841165 33644,6917.877,95.437,540.352,539.132,0.0
54177.0,STARLINK-5186,PAYLOAD,2023-06-06 09:51:19,15.08838998,8.89e-05,53.2156,205.9053,86.8971,273.2123,1.0856e-05,-1.15e-06,0.0,0 STARLINK-5186,1 54177U 22141W   23157.41064652 -.00000115  00000-0  10856-4 0  9992,2 54177  53.2156 205.9053 0000889  86.8971 273.2123 15.08838998 33797,6917.883,95.438,540.363,539.133,0.0
54177.0,STARLINK-5186,PAYLOAD,2023-06-06 22:34:24,15.08839483,9.62e-05,53.2158,203.5274,78.6909,281.4191,2.0735e-05,4.2e-07,0.0,0 STARLINK-5186,1 54177U 22141W   23157.94056615  .00000042  00000-0  20735-4 0  9995,2 54177  53.2158 203.5274 0000962  78.6909 281.4191 15.08839483 33875,6917.882,95.438,540.412,539.081,0.0
54177.0,STARLINK-5186,PAYLOAD,2023-06-07 11:17:30,15.08838306,9.31e-05,53.2156,201.1471,94.3884,265.7214,2.6455e-05,1.33e-06,0.0,0 STARLINK-5186,1 54177U 22141W   23158.47048669  .00000133  00000-0  26455-4 0  9990,2 54177  53.2156 201.1471 0000931  94.3884 265.7214 15.08838306 33952,6917.886,95.438,540.395,539.107,0.0
54177.0,STARLINK-5186,PAYLOAD,2023-06-08 03:11:21,15.08835327,9.27e-05,53.2154,198.1731,94.9652,265.1446,2.1711e-05,5.8e-07,0.0,0 STARLINK-5186,1 54177U 22141W   23159.13288966  .00000058  00000-0  21711-4 0  9996,2 54177  53.2154 198.1731 0000927  94.9652 265.1446 15.08835327 34051,6917.895,95.438,540.401,539.118,0.0
54177.0,STARLINK-5186,PAYLOAD,2023-06-08 09:32:54,15.08835924,9.89e-05,53.2157,196.9843,99.7733,260.3371,3.9501e-05,3.41e-06,0.0,0 STARLINK-5186,1 54177U 22141W   23159.39784937  .00000341  00000-0  39501-4 0  9994,2 54177  53.2157 196.9843 0000989  99.7733 260.3371 15.08835924 34096,6917.893,95.438,540.442,539.074,0.0
54177.0,STARLINK-5186,PAYLOAD,2023-06-09 09:23:41,15.08834802,9.99e-05,53.2158,192.5242,98.1359,261.9746,3.6481e-05,2.93e-06,0.0,0 STARLINK-5186,1 54177U 22141W   23160.39145228  .00000293  00000-0  36481-4 0  9990,2 54177  53.2158 192.5242 0000999  98.1359 261.9746 15.08834802 34244,6917.896,95.438,540.452,539.07,0.0
54177.0,STARLINK-5186,PAYLOAD,2023-06-10 10:49:51,15.08836036,9.59e-05,53.2158,187.7663,94.6133,265.4969,1.3508e-05,-7.3e-07,0.0,0 STARLINK-5186,1 54177U 22141W   23161.45129535 -.00000073  00000-0  13508-4 0  9993,2 54177  53.2158 187.7663 0000959  94.6133 265.4969 15.08836036 34409,6917.893,95.438,540.421,539.094,0.0
54177.0,STARLINK-5186,PAYLOAD,2023-06-10 18:46:47,15.08838302,9.52e-05,53.2157,186.2793,88.1677,271.9424,2.5974e-05,1.26e-06,0.0,0 STARLINK-5186,1 54177U 22141W   23161.78249422  .00000126  00000-0  25974-4 0  9995,2 54177  53.2157 186.2793 0000952  88.1677 271.9424 15.08838302 34451,6917.886,95.438,540.409,539.092,0.0
54177.0,STARLINK-5186,PAYLOAD,2023-06-11 10:40:38,15.08840165,9.37e-05,53.2154,183.305,86.5132,273.5968,6.2882e-05,7.13e-06,0.0,0 STARLINK-5186,1 54177U 22141W   23162.44489249  .00000713  00000-0  62882-4 0  9993,2 54177  53.2154 183.3050 0000937  86.5132 273.5968 15.08840165 34555,6917.88,95.438,540.393,539.097,0.0
54177.0,STARLINK-5186,PAYLOAD,2023-06-11 18:37:34,15.0883951,9.27e-05,53.2154,181.8181,86.9618,273.1481,5.1632e-05,5.34e-06,0.0,0 STARLINK-5186,1 54177U 22141W   23162.77609322  .00000534  00000-0  51632-4 0  9997,2 54177  53.2154 181.8181 0000927  86.9618 273.1481 15.08839510 34609,6917.882,95.438,540.388,539.106,0.0
54177.0,STARLINK-5186,PAYLOAD,2023-06-12 10:31:25,15.08840769,9.6e-05,53.2157,178.8439,86.9804,273.1298,6.1882e-05,6.97e-06,0.0,0 STARLINK-5186,1 54177U 22141W   23163.43849219  .00000697  00000-0  61882-4 0  9990,2 54177  53.2157 178.8439 0000960  86.9804 273.1298 15.08840769 34703,6917.878,95.438,540.407,539.079,0.0
54177.0,STARLINK-5186,PAYLOAD,2023-06-12 18:28:21,15.08839694,9.53e-05,53.2155,177.3569,86.9485,273.1616,4.0194e-05,3.52e-06,0.0,0 STARLINK-5186,1 54177U 22141W   23163.76969329  .00000352  00000-0  40194-4 0  9992,2 54177  53.2155 177.3569 0000953  86.9485 273.1616 15.08839694 34750,6917.881,95.438,540.406,539.087,0.0
54177.0,STARLINK-5186,PAYLOAD,2023-06-13 00:49:54,15.08839781,9.83e-05,53.2156,176.1676,87.5542,272.5562,1.0064e-05,-1.28e-06,0.0,0 STARLINK-5186,1 54177U 22141W   23164.03465442 -.00000128  00000-0  10064-4 0  9995,2 54177  53.2156 176.1676 0000983  87.5542 272.5562 15.08839781 34795,6917.881,95.438,540.426,539.066,0.0
54177.0,STARLINK-5186,PAYLOAD,2023-06-13 18:19:08,15.08840183,9.79e-05,53.2156,172.8967,85.979,274.1314,2.298e-05,7.8e-07,0.0,0 STARLINK-5186,1 54177U 22141W   23164.76329307  .00000078  00000-0  22980-4 0  9997,2 54177  53.2156 172.8967 0000979  85.9790 274.1314 15.08840183 34907,6917.88,95.438,540.422,539.068,0.0
54177.0,STARLINK-5186,PAYLOAD,2023-06-14 00:40:41,15.08840192,9.93e-05,53.2155,171.707,86.9406,273.17,1.3796e-05,-6.8e-07,0.0,0 STARLINK-5186,1 54177U 22141W   23165.02825325 -.00000068  00000-0  13796-4 0  9993,2 54177  53.2155 171.7070 0000993  86.9406 273.1700 15.08840192 34942,6917.88,95.438,540.432,539.058,0.0
